NORAD_CAT_ID,OBJECT_NAME,OBJECT_TYPE,EPOCH,MEAN_MOTION,ECCENTRICITY,INCLINATION,RA_OF_ASC_NODE,ARG_OF_PERICENTER,MEAN_ANOMALY,BSTAR,MEAN_MOTION_DOT,MEAN_MOTION_DDOT,TLE_LINE0,TLE_LINE1,TLE_LINE2,SEMIMAJOR_AXIS,PERIOD,APOGEE,PERIGEE,DECAYED
53415.0,STARLINK-4479,PAYLOAD,2024-06-11 02:58:45,15.08833612,0.0001478,53.2176,91.7748,82.4543,277.6617,0.00019001,2.737e-05,0.0,0 STARLINK-4479,1 53415U 22097AD  24163.12414239  .00002737  00000-0  19001-3 0  9993,2 53415  53.2176  91.7748 0001478  82.4543 277.6617 15.08833612102068,6917.9,95.438,540.787,538.742,0.0
53415.0,STARLINK-4479,PAYLOAD,2024-06-11 12:31:04,15.08839869,0.0001502,53.2178,89.9939,83.6613,276.455,0.00010664,1.41e-05,0.0,0 STARLINK-4479,1 53415U 22097AD  24163.52158256  .00001410  00000-0  10664-3 0  9994,2 53415  53.2178  89.9939 0001502  83.6613 276.4550 15.08839869102580,6917.881,95.438,540.785,538.707,0.0
53415.0,STARLINK-4479,PAYLOAD,2024-06-12 01:14:09,15.08847554,0.0001616,53.2189,87.6116,82.2821,277.8354,3.6876e-05,2.99e-06,0.0,0 STARLINK-4479,1 53415U 22097AD  24164.05149938  .00000299  00000-0  36876-4 0  9998,2 53415  53.2189  87.6116 0001616  82.2821 277.8354 15.08847554102662,6917.857,95.437,540.84,538.604,0.0
53415.0,STARLINK-4479,PAYLOAD,2024-06-12 12:21:52,15.08832941,0.0001622,53.2195,85.5298,88.0447,272.0731,-7.7072e-05,-1.514e-05,0.0,0 STARLINK-4479,1 53415U 22097AD  24164.51519177 -.00001514  00000-0 -77072-4 0  9991,2 53415  53.2195  85.5298 0001622  88.0447 272.0731 15.08832941102279,6917.902,95.438,540.889,538.645,0.0
53415.0,STARLINK-4479,PAYLOAD,2024-06-12 21:54:11,15.08834135,0.0001383,53.216,83.7493,75.1459,284.9687,-8.3447e-06,-4.21e-06,0.0,0 STARLINK-4479,1 53415U 22097AD  24164.91262968 -.00000421  00000-0 -83447-5 0  9998,2 53415  53.2160  83.7493 0001383  75.1459 284.9687 15.08834135102798,6917.898,95.438,540.72,538.807,0.0
53415.0,STARLINK-4479,PAYLOAD,2024-06-13 04:15:42,15.08850218,0.0001483,53.2176,82.556,87.2882,272.828,1.8343e-05,4e-08,0.0,0 STARLINK-4479,1 53415U 22097AD  24165.17757790  .00000004  00000-0  18343-4 0  9996,2 53415  53.2176  82.5560 0001483  87.2882 272.8280 15.08850218102371,6917.849,95.437,540.74,538.688,0.0
53415.0,STARLINK-4479,PAYLOAD,2024-06-13 21:44:57,15.08842915,0.000157,53.2172,79.2832,97.8204,262.2966,5.1835e-05,5.37e-06,0.0,0 STARLINK-4479,1 53415U 22097AD  24165.90622029  .00000537  00000-0  51835-4 0  9997,2 53415  53.2172  79.2832 0001570  97.8204 262.2966 15.08842915102946,6917.871,95.437,540.823,538.65,0.0
53415.0,STARLINK-4479,PAYLOAD,2024-06-13 23:20:20,15.08843922,0.0001581,53.2176,78.9859,97.4665,262.6507,6.0155e-05,6.7e-06,0.0,0 STARLINK-4479,1 53415U 22097AD  24165.97245936  .00000670  00000-0  60155-4 0  9995,2 53415  53.2176  78.9859 0001581  97.4665 262.6507 15.08843922102959,6917.868,95.437,540.827,538.64,0.0
53415.0,STARLINK-4479,PAYLOAD,2024-06-14 21:35:45,15.08825725,0.0001666,53.2185,74.8244,105.1421,254.9756,0.00019996,2.895e-05,0.0,0 STARLINK-4479,1 53415U 22097AD  24166.89982877  .00002895  00000-0  19996-3 0  9996,2 53415  53.2185  74.8244 0001666 105.1421 254.9756 15.08825725102639,6917.924,95.438,540.942,538.636,0.0
53415.0,STARLINK-4479,PAYLOAD,2024-06-15 10:18:50,15.08840423,0.0001451,53.2184,72.4493,92.8931,267.2227,-6.6424e-05,-1.345e-05,0.0,0 STARLINK-4479,1 53415U 22097AD  24167.42974712 -.00001345  00000-0 -66424-4 0  9995,2 53415  53.2184  72.4493 0001451  92.8931 267.2227 15.08840423103170,6917.879,95.438,540.748,538.74,0.0
53415.0,STARLINK-4479,PAYLOAD,2024-06-15 21:26:32,15.08838686,0.0001423,53.2181,70.3669,86.5645,273.551,1.3569e-05,-7.2e-07,0.0,0 STARLINK-4479,1 53415U 22097AD  24167.89342700 -.00000072  00000-0  13569-4 0  9999,2 53415  53.2181  70.3669 0001423  86.5645 273.5510 15.08838686103241,6917.884,95.438,540.734,538.765,0.0
53415.0,STARLINK-4479,PAYLOAD,2024-06-16 10:09:36,15.08840144,0.000144,53.2194,67.9916,98.0799,262.0357,5.3797e-05,5.68e-06,0.0,0 STARLINK-4479,1 53415U 22097AD  24168.42334488  .00000568  00000-0  53797-4 0  9999,2 53415  53.2194  67.9916 0001440  98.0799 262.0357 15.08840144103322,6917.88,95.438,540.741,538.749,0.0
53415.0,STARLINK-4479,PAYLOAD,2024-06-16 22:52:42,15.088321,0.0001512,53.2196,65.6137,97.1563,262.9601,5.7675e-06,-1.96e-06,0.0,0 STARLINK-4479,1 53415U 22097AD  24168.95327336 -.00000196  00000-0  57675-5 0  9999,2 53415  53.2196  65.6137 0001512  97.1563 262.9601 15.08832100103406,6917.905,95.438,540.816,538.724,0.0
53415.0,STARLINK-4479,PAYLOAD,2024-06-17 22:43:29,15.0884338,0.0001217,53.2177,61.1486,96.227,263.8861,3.7515e-05,3.09e-06,0.0,0 STARLINK-4479,1 53415U 22097AD  24169.94686600  .00000309  00000-0  37515-4 0  9996,2 53415  53.2177  61.1486 0001217  96.2270 263.8861 15.08843380103556,6917.87,95.437,540.577,538.893,0.0
53415.0,STARLINK-4479,PAYLOAD,2024-06-18 00:18:52,15.08845083,0.0001105,53.2169,60.8503,86.1214,273.9904,4.7215e-05,4.64e-06,0.0,0 STARLINK-4479,1 53415U 22097AD  24170.01310510  .00000464  00000-0  47215-4 0  9990,2 53415  53.2169  60.8503 0001105  86.1214 273.9904 15.08845083103108,6917.865,95.437,540.494,538.965,0.0
53415.0,STARLINK-4479,PAYLOAD,2024-06-18 22:34:16,15.08836488,0.0001111,53.2165,56.6866,82.3658,277.7461,0.00013869,1.92e-05,0.0,0 STARLINK-4479,1 53415U 22097AD  24170.94046663  .00001920  00000-0  13869-3 0  9992,2 53415  53.2165  56.6866 0001111  82.3658 277.7461 15.08836488103701,6917.891,95.438,540.525,538.988,0.0
53415.0,STARLINK-4479,PAYLOAD,2024-06-19 09:41:58,15.08843128,0.0001285,53.2179,54.6067,87.1605,272.9534,1.71e-05,-1.6e-07,0.0,0 STARLINK-4479,1 53415U 22097AD  24171.40414587 -.00000016  00000-0  17100-4 0  9997,2 53415  53.2179  54.6067 0001285  87.1605 272.9534 15.08843128103318,6917.871,95.437,540.625,538.847,0.0
53415.0,STARLINK-4479,PAYLOAD,2024-06-19 20:49:40,15.08837592,0.0001435,53.2187,52.528,87.5176,272.598,-9.4635e-06,-4.39e-06,0.0,0 STARLINK-4479,1 53415U 22097AD  24171.86783203 -.00000439  00000-0 -94635-5 0  9990,2 53415  53.2187  52.5280 0001435  87.5176 272.5980 15.08837592103381,6917.888,95.438,540.745,538.76,0.0
53415.0,STARLINK-4479,PAYLOAD,2024-06-19 22:25:03,15.08839982,0.0001318,53.2178,52.2313,90.9191,269.1952,-5.2063e-05,-1.116e-05,0.0,0 STARLINK-4479,1 53415U 22097AD  24171.93407144 -.00001116  00000-0 -52063-4 0  9996,2 53415  53.2178  52.2313 0001318  90.9191 269.1952 15.08839982103858,6917.88,95.438,540.657,538.834,0.0
53415.0,STARLINK-4479,PAYLOAD,2024-06-20 09:32:45,15.08837189,0.0001414,53.2169,50.1481,80.7481,279.3671,-3.2914e-05,-8.12e-06,0.0,0 STARLINK-4479,1 53415U 22097AD  24172.39775297 -.00000812  00000-0 -32914-4 0  9999,2 53415  53.2169  50.1481 0001414  80.7481 279.3671 15.08837189103923,6917.889,95.438,540.732,538.776,0.0
53415.0,STARLINK-4479,PAYLOAD,2024-06-20 22:15:50,15.08839245,0.0001337,53.2183,47.7682,85.7546,274.3599,-6.3122e-05,-1.292e-05,0.0,0 STARLINK-4479,1 53415U 22097AD  24172.92767334 -.00001292  00000-0 -63122-4 0  9999,2 53415  53.2183  47.7682 0001337  85.7546 274.3599 15.08839245103542,6917.883,95.438,540.673,538.823,0.0
53415.0,STARLINK-4479,PAYLOAD,2024-06-21 22:06:37,15.08840922,0.0001285,53.2174,43.3066,94.2818,265.8321,4.6453e-05,4.52e-06,0.0,0 STARLINK-4479,1 53415U 22097AD  24173.92126995  .00000452  00000-0  46453-4 0  9995,2 53415  53.2174  43.3066 0001285  94.2818 265.8321 15.08840922104159,6917.878,95.437,540.632,538.854,0.0
53415.0,STARLINK-4479,PAYLOAD,2024-06-22 20:22:01,15.08837635,0.0001307,53.2179,39.1423,96.9966,263.1174,7.202e-05,8.58e-06,0.0,0 STARLINK-4479,1 53415U 22097AD  24174.84863224  .00000858  00000-0  72020-4 0  9999,2 53415  53.2179  39.1423 0001307  96.9966 263.1174 15.08837635103830,6917.888,95.438,540.657,538.848,0.0
53415.0,STARLINK-4479,PAYLOAD,2024-06-23 13:51:16,15.08839961,0.000129,53.2174,35.8721,94.4238,265.6901,1.086e-05,-1.15e-06,0.0,0 STARLINK-4479,1 53415U 22097AD  24175.57727380 -.00000115  00000-0  10860-4 0  9993,2 53415  53.2174  35.8721 0001290  94.4238 265.6901 15.08839961104408,6917.881,95.438,540.638,538.853,0.0
53415.0,STARLINK-4479,PAYLOAD,2024-06-23 21:48:11,15.08841728,0.0001291,53.2178,34.3845,99.5592,260.5546,1.8128e-05,1e-08,0.0,0 STARLINK-4479,1 53415U 22097AD  24175.90847205  .00000001  00000-0  18128-4 0  9997,2 53415  53.2178  34.3845 0001291  99.5592 260.5546 15.08841728104451,6917.875,95.437,540.633,538.847,0.0
53415.0,STARLINK-4479,PAYLOAD,2024-06-24 00:58:58,15.08843563,0.0001297,53.2179,33.7892,101.1509,258.9629,2.9961e-05,1.89e-06,0.0,0 STARLINK-4479,1 53415U 22097AD  24176.04095018  .00000189  00000-0  29961-4 0  9994,2 53415  53.2179  33.7892 0001297 101.1509 258.9629 15.08843563104015,6917.869,95.437,540.632,538.837,0.0
53415.0,STARLINK-4479,PAYLOAD,2024-06-24 20:03:36,15.08838241,0.0001396,53.2183,30.22,112.6224,247.4916,-3.7625e-05,-8.87e-06,0.0,0 STARLINK-4479,1 53415U 22097AD  24176.83583652 -.00000887  00000-0 -37625-4 0  9990,2 53415  53.2183  30.2200 0001396 112.6224 247.4916 15.08838241104138,6917.886,95.438,540.717,538.785,0.0
53415.0,STARLINK-4479,PAYLOAD,2024-06-24 21:38:59,15.08840697,0.0001534,53.2182,29.9228,111.407,248.7086,-3.0569e-05,-7.74e-06,0.0,0 STARLINK-4479,1 53415U 22097AD  24176.90207496 -.00000774  00000-0 -30569-4 0  9992,2 53415  53.2182  29.9228 0001534 111.4070 248.7086 15.08840697104604,6917.878,95.438,540.804,538.682,0.0
53415.0,STARLINK-4479,PAYLOAD,2024-06-25 21:29:45,15.08845504,0.0001231,53.2184,25.4618,86.2389,273.8744,4.2101e-05,3.82e-06,0.0,0 STARLINK-4479,1 53415U 22097AD  24177.89567101  .00000382  00000-0  42101-4 0  9991,2 53415  53.2184  25.4618 0001231  86.2389 273.8744 15.08845504104754,6917.864,95.437,540.58,538.877,0.0
53415.0,STARLINK-4479,PAYLOAD,2024-06-27 06:52:52,15.08839693,0.0001345,53.2185,19.2202,72.5588,287.5551,2.4248e-05,9.8e-07,0.0,0 STARLINK-4479,1 53415U 22097AD  24179.28671628  .00000098  00000-0  24248-4 0  9992,2 53415  53.2185  19.2202 0001345  72.5588 287.5551 15.08839693104503,6917.881,95.438,540.677,538.816,0.0
